NORAD_CAT_ID,OBJECT_NAME,OBJECT_TYPE,EPOCH,MEAN_MOTION,ECCENTRICITY,INCLINATION,RA_OF_ASC_NODE,ARG_OF_PERICENTER,MEAN_ANOMALY,BSTAR,MEAN_MOTION_DOT,MEAN_MOTION_DDOT,TLE_LINE0,TLE_LINE1,TLE_LINE2,SEMIMAJOR_AXIS,PERIOD,APOGEE,PERIGEE,DECAYED
52462.0,STARLINK-3903,PAYLOAD,2023-06-04 02:30:47,15.08837357,7.93e-05,53.2171,271.3365,100.734,259.3741,9.8222e-05,1.276e-05,0.0,0 STARLINK-3903,1 52462U 22049M   23155.10471521  .00001276  00000-0  98222-4 0  9996,2 52462  53.2171 271.3365 0000793 100.7340 259.3741 15.08837357 59991,6917.888,95.438,540.302,539.205,0.0
52462.0,STARLINK-3903,PAYLOAD,2023-06-04 13:38:29,15.08837791,9.14e-05,53.2168,269.2541,121.0977,239.0105,0.00015802,2.228e-05,0.0,0 STARLINK-3903,1 52462U 22049M   23155.56839386  .00002228  00000-0  15802-3 0  9993,2 52462  53.2168 269.2541 0000914 121.0977 239.0105 15.08837791 59908,6917.887,95.438,540.384,539.12,0.0
52462.0,STARLINK-3903,PAYLOAD,2023-06-04 15:13:52,15.08840341,9.14e-05,53.2168,268.9567,120.6076,239.5006,0.0001769,2.529e-05,0.0,0 STARLINK-3903,1 52462U 22049M   23155.63463185  .00002529  00000-0  17690-3 0  9992,2 52462  53.2168 268.9567 0000914 120.6076 239.5006 15.08840341 59918,6917.879,95.438,540.377,539.112,0.0
52462.0,STARLINK-3903,PAYLOAD,2023-06-05 07:07:43,15.08841987,8.24e-05,53.2172,265.9838,81.6219,278.4866,9.4701e-05,1.22e-05,0.0,0 STARLINK-3903,1 52462U 22049M   23156.29703381  .00001220  00000-0  94701-4 0  9996,2 52462  53.2172 265.9838 0000824  81.6219 278.4866 15.08841987 60179,6917.874,95.437,540.309,539.169,0.0
52462.0,STARLINK-3903,PAYLOAD,2023-06-05 13:29:15,15.08844506,6.12e-05,53.2167,264.7929,86.4185,273.6877,0.00012989,1.78e-05,0.0,0 STARLINK-3903,1 52462U 22049M   23156.56199046  .00001780  00000-0  12989-3 0  9991,2 52462  53.2167 264.7929 0000612  86.4185 273.6877 15.08844506 60057,6917.867,95.437,540.155,539.308,0.0
52462.0,STARLINK-3903,PAYLOAD,2023-06-06 08:33:54,15.08833714,7.32e-05,53.2167,261.225,92.4341,267.6735,-4.2616e-06,-3.55e-06,0.0,0 STARLINK-3903,1 52462U 22049M   23157.35688004 -.00000355  00000-0 -42616-5 0  9997,2 52462  53.2167 261.2250 0000732  92.4341 267.6735 15.08833714 60336,6917.9,95.438,540.271,539.258,0.0
52462.0,STARLINK-3903,PAYLOAD,2023-06-06 11:44:40,15.08836022,7.04e-05,53.2168,260.6304,92.1212,267.9861,9.0743e-06,-1.43e-06,0.0,0 STARLINK-3903,1 52462U 22049M   23157.48935770 -.00000143  00000-0  90743-5 0  9994,2 52462  53.2168 260.6304 0000704  92.1212 267.9861 15.08836022 60195,6917.893,95.438,540.245,539.271,0.0
52462.0,STARLINK-3903,PAYLOAD,2023-06-06 16:30:49,15.08845009,6.95e-05,53.2168,259.7378,102.0275,258.0795,1.1943e-05,-9.8e-07,0.0,0 STARLINK-3903,1 52462U 22049M   23157.68807161 -.00000098  00000-0  11943-4 0  9991,2 52462  53.2168 259.7378 0000695 102.0275 258.0795 15.08845009 60387,6917.865,95.437,540.211,539.249,0.0
52462.0,STARLINK-3903,PAYLOAD,2023-06-07 06:49:18,15.08837713,7.31e-05,53.2172,257.0625,77.3523,282.755,1.859e-05,8e-08,0.0,0 STARLINK-3903,1 52462U 22049M   23158.28423721  .00000008  00000-0  18590-4 0  9999,2 52462  53.2172 257.0625 0000731  77.3523 282.7550 15.08837713 60475,6917.887,95.438,540.258,539.247,0.0
52462.0,STARLINK-3903,PAYLOAD,2023-06-08 09:50:51,15.08834145,8.81e-05,53.2169,252.0076,71.7075,288.4013,0.00010242,1.342e-05,0.0,0 STARLINK-3903,1 52462U 22049M   23159.41031882  .00001342  00000-0  10242-3 0  9995,2 52462  53.2169 252.0076 0000881  71.7075 288.4013 15.08834145 60644,6917.898,95.438,540.373,539.154,0.0
52462.0,STARLINK-3903,PAYLOAD,2023-06-08 11:26:14,15.08834417,8.79e-05,53.217,251.71,70.5581,289.5507,0.00010273,1.347e-05,0.0,0 STARLINK-3903,1 52462U 22049M   23159.47655884  .00001347  00000-0  10273-3 0  9994,2 52462  53.2170 251.7100 0000879  70.5581 289.5507 15.08834417 60491,6917.897,95.438,540.371,539.154,0.0
52462.0,STARLINK-3903,PAYLOAD,2023-06-08 13:01:37,15.08836751,8.13e-05,53.2168,251.4116,95.1161,264.9924,0.00011831,1.596e-05,0.0,0 STARLINK-3903,1 52462U 22049M   23159.54279634  .00001596  00000-0  11831-3 0  9994,2 52462  53.2168 251.4116 0000813  95.1161 264.9924 15.08836751 60502,6917.89,95.438,540.318,539.193,0.0
52462.0,STARLINK-3903,PAYLOAD,2023-06-08 17:47:46,15.08844384,7.26e-05,53.2172,250.5193,82.2991,277.8084,0.00011492,1.542e-05,0.0,0 STARLINK-3903,1 52462U 22049M   23159.74151177  .00001542  00000-0  11492-3 0  9991,2 52462  53.2172 250.5193 0000726  82.2991 277.8084 15.08844384 60694,6917.867,95.437,540.234,539.23,0.0
52462.0,STARLINK-3903,PAYLOAD,2023-06-09 04:55:29,15.08837676,0.0001319,53.2153,248.4411,68.4446,291.6687,7.0962e-05,8.42e-06,0.0,0 STARLINK-3903,1 52462U 22049M   23160.20519914  .00000842  00000-0  70962-4 0  9991,2 52462  53.2153 248.4411 0001319  68.4446 291.6687 15.08837676 60769,6917.887,95.438,540.665,538.84,0.0
52462.0,STARLINK-3903,PAYLOAD,2023-06-09 12:52:24,15.08838699,0.0001213,53.2163,246.9526,98.9532,261.1598,6.0897e-05,6.81e-06,0.0,0 STARLINK-3903,1 52462U 22049M   23160.53639837  .00000681  00000-0  60897-4 0  9991,2 52462  53.2163 246.9526 0001213  98.9532 261.1598 15.08838699 60654,6917.884,95.438,540.589,538.91,0.0
52462.0,STARLINK-3903,PAYLOAD,2023-06-09 16:03:10,15.08841753,0.0001024,53.2166,246.3571,93.6614,266.4495,8.298e-05,1.033e-05,0.0,0 STARLINK-3903,1 52462U 22049M   23160.66887591  .00001033  00000-0  82980-4 0  9996,2 52462  53.2166 246.3571 0001024  93.6614 266.4495 15.08841753 60675,6917.875,95.437,540.448,539.032,0.0
52462.0,STARLINK-3903,PAYLOAD,2023-06-10 06:21:39,15.08833078,8.37e-05,53.2159,243.6809,92.6081,267.5007,1.7911e-05,-3e-08,0.0,0 STARLINK-3903,1 52462U 22049M   23161.26504418 -.00000003  00000-0  17911-4 0  9996,2 52462  53.2159 243.6809 0000837  92.6081 267.5007 15.08833078 60929,6917.902,95.438,540.346,539.188,0.0
52462.0,STARLINK-3903,PAYLOAD,2023-06-10 12:43:11,15.08842112,0.0001118,53.2163,242.4927,98.688,261.4238,-5.989e-06,-3.83e-06,0.0,0 STARLINK-3903,1 52462U 22049M   23161.52999969 -.00000383  00000-0 -59890-5 0  9999,2 52462  53.2163 242.4927 0001118  98.6880 261.4238 15.08842112 60803,6917.874,95.437,540.512,538.966,0.0
52462.0,STARLINK-3903,PAYLOAD,2023-06-11 14:09:22,15.08839507,8.39e-05,53.2168,237.7354,95.5037,264.6051,7.3775e-05,8.87e-06,0.0,0 STARLINK-3903,1 52462U 22049M   23162.58984088  .00000887  00000-0  73775-4 0  9996,2 52462  53.2168 237.7354 0000839  95.5037 264.6051 15.08839507 60967,6917.882,95.438,540.327,539.166,0.0
52462.0,STARLINK-3903,PAYLOAD,2023-06-11 22:06:17,15.08841059,8.37e-05,53.2165,236.2481,89.7475,270.3613,5.0149e-05,5.11e-06,0.0,0 STARLINK-3903,1 52462U 22049M   23162.92104077  .00000511  00000-0  50149-4 0  9990,2 52462  53.2165 236.2481 0000837  89.7475 270.3613 15.08841059 61018,6917.877,95.437,540.321,539.163,0.0
52462.0,STARLINK-3903,PAYLOAD,2023-06-12 10:49:22,15.08841259,8.16e-05,53.2164,233.869,89.8982,270.2103,7.709e-05,9.39e-06,0.0,0 STARLINK-3903,1 52462U 22049M   23163.45096058  .00000939  00000-0  77090-4 0  9996,2 52462  53.2164 233.8690 0000816  89.8982 270.2103 15.08841259 61096,6917.877,95.437,540.306,539.177,0.0
52462.0,STARLINK-3903,PAYLOAD,2023-06-12 21:57:04,15.08842212,8.27e-05,53.2162,231.7877,87.4782,272.6304,7.4818e-05,9.03e-06,0.0,0 STARLINK-3903,1 52462U 22049M   23163.91463996  .00000903  00000-0  74818-4 0  9992,2 52462  53.2162 231.7877 0000827  87.4782 272.6304 15.08842212 61169,6917.874,95.437,540.311,539.167,0.0
52462.0,STARLINK-3903,PAYLOAD,2023-06-13 04:18:37,15.08836298,9.84e-05,53.2165,230.5984,87.1617,272.9488,3.4789e-05,2.66e-06,0.0,0 STARLINK-3903,1 52462U 22049M   23164.17960527  .00000266  00000-0  34789-4 0  9998,2 52462  53.2165 230.5984 0000984  87.1617 272.9488 15.08836298 61361,6917.892,95.438,540.437,539.076,0.0
52462.0,STARLINK-3903,PAYLOAD,2023-06-13 21:47:52,15.08838166,8.88e-05,53.2159,227.3275,85.4038,274.7056,1.6282e-06,-2.62e-06,0.0,0 STARLINK-3903,1 52462U 22049M   23164.90824566 -.00000262  00000-0  16282-5 0  9997,2 52462  53.2159 227.3275 0000888  85.4038 274.7056 15.08838166 61314,6917.886,95.438,540.365,539.137,0.0
52462.0,STARLINK-3903,PAYLOAD,2023-06-13 23:23:15,15.08840311,9.15e-05,53.2158,227.0294,85.0209,275.0888,4.1261e-05,3.69e-06,0.0,0 STARLINK-3903,1 52462U 22049M   23164.97448323  .00000369  00000-0  41261-4 0  9998,2 52462  53.2158 227.0294 0000915  85.0209 275.0888 15.08840311 61321,6917.879,95.438,540.377,539.111,0.0
52462.0,STARLINK-3903,PAYLOAD,2023-06-15 10:21:44,15.08838857,8.62e-05,53.2157,220.4862,82.4595,277.6495,6.4472e-05,7.38e-06,0.0,0 STARLINK-3903,1 52462U 22049M   23166.43176522  .00000738  00000-0  64472-4 0  9999,2 52462  53.2157 220.4862 0000862  82.4595 277.6495 15.08838857 61704,6917.884,95.438,540.345,539.153,0.0
52462.0,STARLINK-3903,PAYLOAD,2023-06-16 10:12:30,15.0884968,8.82e-05,53.2156,216.0257,79.3568,280.7524,0.00015562,2.19e-05,0.0,0 STARLINK-3903,1 52462U 22049M   23167.42535591  .00002190  00000-0  15562-3 0  9993,2 52462  53.2156 216.0257 0000882  79.3568 280.7524 15.08849680 61859,6917.851,95.437,540.326,539.106,0.0
52462.0,STARLINK-3903,PAYLOAD,2023-06-16 19:44:49,15.08851362,9.37e-05,53.2164,214.2421,82.1771,277.9327,0.00015879,2.241e-05,0.0,0 STARLINK-3903,1 52462U 22049M   23167.82279267  .00002241  00000-0  15879-3 0  9990,2 52462  53.2164 214.2421 0000937  82.1771 277.9327 15.08851362 61758,6917.846,95.437,540.359,539.062,0.0
52462.0,STARLINK-3903,PAYLOAD,2023-06-16 22:55:36,15.08838301,8.85e-05,53.2159,213.6476,77.6047,282.5044,4.8805e-05,4.89e-06,0.0,0 STARLINK-3903,1 52462U 22049M   23167.95528516  .00000489  00000-0  48805-4 0  9996,2 52462  53.2159 213.6476 0000885  77.6047 282.5044 15.08838301 61938,6917.886,95.438,540.363,539.138,0.0
52462.0,STARLINK-3903,PAYLOAD,2023-06-17 10:03:18,15.0883661,7.87e-05,53.2156,211.5646,73.4163,286.6915,1.5346e-05,-4.3e-07,0.0,0 STARLINK-3903,1 52462U 22049M   23168.41896715 -.00000043  00000-0  15346-4 0  9998,2 52462  53.2156 211.5646 0000787  73.4163 286.6915 15.08836610 61848,6917.891,95.438,540.3,539.211,0.0
